STARLINK-31816          
1 59742U 24090N   24143.58334491 -.01047414  00000+0 -49308-2 0  9991
2 59742  43.0020 322.4239 0001311 274.9955 296.8980 15.84713803  2699
STARLINK-31809          
1 59743U 24090P   24142.91667824 -.00901448  00000+0 -47336-2 0  9991
2 59743  43.0027 326.7841 0001343 279.6722 342.3621 15.82069094  2505
STARLINK-31779          
1 59744U 24090Q   24142.91667824 -.00916339  00000+0 -48098-2 0  9993
2 59744  43.0023 326.7727 0001585 282.0976 344.4319 15.82112988  2599
STARLINK-31805          
1 59745U 24090R   24142.91667824 -.00908185  00000+0 -47673-2 0  9992
2 59745  43.0024 326.7783 0001538 272.8161 351.4451 15.82091577  2612
STARLINK-31681          
1 59746U 24090S   24142.91667824 -.00925314  00000+0 -48558-2 0  9999
2 59746  43.0024 326.7674 0001574 286.7956 341.8294 15.82140562  2615
STARLINK-31636          
1 59747U 24090T   24143.58334491 -.00991390  00000+0 -55870-2 0  9997
2 59747  43.0022 322.6720 0001461 275.1954 198.3516 15.80794241  2716
STARLINK-31640          
1 59748U 24090U   24143.58334491 -.00978951  00000+0 -55103-2 0  9995
2 59748  43.0022 322.6778 0001641 284.8901 186.3215 15.80785531  2714
STARLINK-31677          
1 59749U 24090V   24143.58334491 -.00997411  00000+0 -56230-2 0  9990
2 59749  43.0022 322.6661 0001580 283.5951 192.2514 15.80800839  2716
STARLINK-31783          
1 59750U 24090W   24143.58334491 -.01003865  00000+0 -56588-2 0  9990
2 59750  43.0023 322.6610 0001600 278.2027 199.6887 15.80819715  2718
STARLINK-31808          
1 59751U 24090X   24143.58334491 -.01013609  00000+0 -57186-2 0  9993
2 59751  43.0023 322.6553 0001584 275.8716 204.3368 15.80827181  2718
STARLINK-31822          
1 59752U 24090Y   24143.58334491 -.01019479  00000+0 -57511-2 0  9997
2 59752  43.0023 322.6502 0001345 272.5422 209.6753 15.80847474  2719
STARLINK-11125 [DTC]    
1 59753U 24091A   24143.58334491  .00408389  00000+0  15590-2 0  9999
2 59753  53.1629 203.1903 0000384 123.9621  90.9914 15.85906168  2456
STARLINK-11118 [DTC]    
1 59754U 24091B   24142.91667824 -.00734292  00000+0 -30702-2 0  9994
2 59754  53.1631 206.5383 0000711  83.5050 290.5805 15.86627144  2340
STARLINK-11132 [DTC]    
1 59755U 24091C   24142.91667824 -.00693477  00000+0 -28064-2 0  9992
2 59755  53.1631 206.5249 0000710  86.0064 294.5210 15.87192878  2340
STARLINK-11131 [DTC]    
1 59756U 24091D   24142.91667824 -.00668942  00000+0 -26354-2 0  9992
2 59756  53.1631 206.5121 0000663  69.7953 316.9674 15.87676693  2347
STARLINK-11114 [DTC]    
1 59757U 24091E   24142.91667824 -.00640747  00000+0 -24612-2 0  9991
2 59757  53.1630 206.5003 0000701  87.0267 305.3525 15.88119017  2283
STARLINK-11105 [DTC]    
1 59758U 24091F   24142.91667824 -.00617795  00000+0 -23194-2 0  9993
2 59758  53.1628 206.4896 0000623  78.4317 319.1748 15.88523028  2284
STARLINK-11097 [DTC]    
1 59759U 24091G   24142.91667824 -.00602583  00000+0 -22169-2 0  9994
2 59759  53.1628 206.4784 0000603  86.1788 316.7280 15.88890992  2345
STARLINK-11098 [DTC]    
1 59760U 24091H   24142.91667824 -.00583672  00000+0 -21056-2 0  9997
2 59760  53.1629 206.4691 0000627  81.1219 326.4398 15.89236351  2280
STARLINK-11117 [DTC]    
1 59761U 24091J   24142.91667824 -.00572780  00000+0 -20301-2 0  9998
2 59761  53.1626 206.4588 0000705  85.8206 326.6429 15.89559702  2349
STARLINK-11110 [DTC]    
1 59762U 24091K   24142.91667824 -.00556520  00000+0 -19387-2 0  9995
2 59762  53.1626 206.4499 0000654  68.0636 348.6087 15.89862850  2349
STARLINK-11104 [DTC]    
1 59763U 24091L   24142.91667824 -.00549967  00000+0 -18860-2 0  9998
2 59763  53.1626 206.4400 0000685  88.4012 332.9602 15.90155535  2346
STARLINK-11111 [DTC]    
1 59764U 24091M   24142.91667824 -.00537624  00000+0 -17922-2 0  9994
2 59764  53.1623 206.4197 0000640  70.5650   0.5638 15.90679967  2345
STARLINK-11106 [DTC]    
1 59765U 24091N   24142.91667824 -.00536673  00000+0 -18123-2 0  9992
2 59765  53.1626 206.4319 0000576  79.1579 346.0585 15.90427006  2342
STARLINK-31739          
1 59766U 24091P   24142.91667824 -.00836693  00000+0 -30270-2 0  9995
2 59766  53.1619 206.3943 0000982  82.0459   0.9604 15.89738892  2285
STARLINK-31828          
1 59767U 24091Q   24142.91667824 -.00800641  00000+0 -29339-2 0  9994
2 59767  53.1619 206.4118 0001177  76.2295 358.4903 15.89406070  2082
STARLINK-31826          
1 59768U 24091R   24142.91667824 -.00781020  00000+0 -28876-2 0  9999
2 59768  53.1620 206.4230 0000666  74.4291 354.9181 15.89191312  2346
STARLINK-31830          
1 59769U 24091S   24142.91667824 -.00824609  00000+0 -29977-2 0  9994
2 59769  53.1620 206.4009 0000665  70.4884   9.5171 15.89620243  2087
STARLINK-31829          
1 59770U 24091T   24142.91667824 -.00792687  00000+0 -29176-2 0  9997
2 59770  53.1623 206.4173 0000780  85.3663 346.7997 15.89304881  2081
STARLINK-31786          
1 59771U 24091U   24142.91667824 -.00812638  00000+0 -29650-2 0  9994
2 59771  53.1622 206.4060 0001179  78.7598 358.7328 15.89517698  2287
STARLINK-31835          
1 59772U 24091V   24142.91667824 -.00848022  00000+0 -30539-2 0  9999
2 59772  53.1621 206.3889 0001184  78.1802   7.6929 15.89852218  2088
COSMOS 2576             
1 59773U 24092A   24142.88090605  .00041797  00000+0  99691-3 0  9991
2 59773  97.2462 255.0405 0011789 228.3204 131.7035 15.41369937   762
2024-092B               
1 59774U 24092B   24143.32999851  .00015507  00000+0  98799-3 0  9991
2 59774  97.5879 255.4504 0011910 285.8841 141.3380 15.08774661   782
2024-092C               
1 59775U 24092C   24143.32928703  .00014921  00000+0  94671-3 0  9994
2 59775  97.5996 255.4719 0011919 287.5620 138.8228 15.08937756   793
2024-092D               
1 59776U 24092D   24143.26529441  .00017320  00000+0  11367-2 0  9990
2 59776  97.5939 255.3920 0011514 253.4772 162.3164 15.07661264   782
2024-092E               
1 59777U 24092E   24143.39587868  .00017775  00000+0  11655-2 0  9996
2 59777  97.5961 255.5182 0012264 260.9261 143.4780 15.07684617   803
2024-092F               
1 59778U 24092F   24143.26536752  .00017037  00000+0  11160-2 0  9991
2 59778  97.5961 255.3907 0012452 262.6487 154.7813 15.07728948   780
2024-092G               
1 59779U 24092G   24143.31376169  .00000867  00000+0  34552-3 0  9996
2 59779  98.6031 255.4498 0011061 275.5695  84.4145 14.31068366   757
2024-092H               
1 59780U 24092H   24143.31374170  .00000583  00000+0  23788-3 0  9992
2 59780  98.6047 255.4495 0011333 277.1768  82.8014 14.31072489   752
2024-092J               
1 59781U 24092J   24143.31372919  .00001118  00000+0  44073-3 0  9997
2 59781  98.6046 255.4489 0011469 276.0195  83.9486 14.31077825   751
STARLINK-31363          
1 59782U 24093A   24143.58334491 -.00508100  96542-4 -96713-3 0  9995
2 59782  43.0042 352.9806 0004888 270.7050 191.4986 15.99620489  1909
STARLINK-31868          
1 59783U 24093B   24143.58334491 -.00766919  18824-3 -21116-2 0  9990
2 59783  43.0044 353.0769 0001651 275.0445 149.3238 15.92975390  1902
STARLINK-31848          
1 59784U 24093C   24143.58334491 -.00771884  19062-3 -21154-2 0  9995
2 59784  43.0044 353.0750 0001730 275.3733 149.8006 15.93064358  1906
STARLINK-31890          
1 59785U 24093D   24143.58334491 -.00780164  19455-3 -21260-2 0  9991
2 59785  43.0043 353.0728 0002035 268.4813 157.5692 15.93172232  1900
STARLINK-31862          
1 59786U 24093E   24143.58334491 -.00791605  20006-3 -21401-2 0  9995
2 59786  43.0042 353.0687 0002083 266.3940 161.1399 15.93324475  1751
STARLINK-31870          
1 59787U 24093F   24143.58334491 -.00784180  19650-3 -21298-2 0  9993
2 59787  43.0044 353.0708 0001522 268.2020 158.5545 15.93238037  1857
STARLINK-31888          
1 59788U 24093G   24143.58334491 -.00796449  20270-3 -21305-2 0  9994
2 59788  43.0043 353.0644 0001822 272.3302 156.9380 15.93526319  1850
STARLINK-31863          
1 59789U 24093H   24143.58334491 -.00797252  20293-3 -21405-2 0  9994
2 59789  43.0043 353.0663 0001604 269.2907 159.2621 15.93457867  1907
STARLINK-31873          
1 59790U 24093J   24143.58334491 -.00802424  20574-3 -21314-2 0  9995
2 59790  43.0042 353.0618 0001996 278.5341 151.7521 15.93659612  1905
STARLINK-31865          
1 59791U 24093K   24143.50001157 -.00799001  20465-3 -20951-2 0  9999
2 59791  43.0043 353.5783 0001779 271.7521  40.7197 15.93902203  1889
STARLINK-31893          
1 59792U 24093L   24143.58334491 -.00818326  21368-3 -21486-2 0  9997
2 59792  43.0042 353.0575 0002038 276.6127 155.4596 15.93880143  1917
STARLINK-31901          
1 59793U 24093M   24143.58334491 -.00825175  21709-3 -21587-2 0  9999
2 59793  43.0041 353.0554 0001969 268.6262 164.1619 15.93950018  1908
STARLINK-31823          
1 59794U 24093N   24143.58334491 -.00830955  22009-3 -21619-2 0  9992
2 59794  43.0042 353.0527 0001631 272.1331 161.5339 15.94055302  1906
STARLINK-31916          
1 59795U 24093P   24143.58334491 -.00832870  22122-3 -21563-2 0  9995
2 59795  43.0040 353.0511 0001756 278.5353 155.9577 15.94146911  1908
STARLINK-31915          
1 59796U 24093Q   24143.58334491  .00698788  21807-3  15542-2 0  9991
2 59796  43.0037 353.0353 0003172 233.9325 206.6951 15.97065148  1902
STARLINK-31907          
1 59797U 24093R   24143.58334491 -.00841532  22565-3 -21672-2 0  9994
2 59797  43.0037 353.0489 0001620 274.2161 161.1247 15.94248105  1855
STARLINK-31687          
1 59798U 24093S   24143.58334491 -.00898384  25643-3 -22072-2 0  9997
2 59798  43.0037 353.0302 0001769 278.4217 164.1252 15.95133240  1901
STARLINK-31810          
1 59799U 24093T   24143.58334491 -.00874428  24327-3 -21882-2 0  9997
2 59799  43.0037 353.0374 0001968 278.7099 161.0773 15.94787587  1905
